[
    {
        "Altitude(m)": 704205.9227932136,
        "Argument of Periapsis(deg)": 0.011390121186627068,
        "Eccentricity": 0.0,
        "Inclination(deg)": 45.0,
        "Latitude(deg)": 29.682242323074394,
        "Longitude(deg)": 158.7615487742123,
        "Mean Anomaly(deg)": 44.26051664748081,
        "RAAN(deg)": 224.9892480585418,
        "Satellite Name": "Constellation 1 992",
        "Satellite Number": 992,
        "Semi-Major Axis(m)": 7083131.272910544,
        "Time(s)": 190
    },
    {
        "Altitude(m)": 704211.6268809066,
        "Argument of Periapsis(deg)": 0.011450069192872472,
        "Eccentricity": 0.0,
        "Inclination(deg)": 45.0,
        "Latitude(deg)": 29.717758304397833,
        "Longitude(deg)": 158.81416717653636,
        "Mean Anomaly(deg)": 44.321217787730724,
        "RAAN(deg)": 224.9891914693762,
        "Satellite Name": "Constellation 1 992",
        "Satellite Number": 992,
        "Semi-Major Axis(m)": 7083131.272910544,
        "Time(s)": 191
    },
    {
        "Altitude(m)": 704217.3356062,
        "Argument of Periapsis(deg)": 0.01151001719911788,
        "Eccentricity": 0.0,
        "Inclination(deg)": 45.0,
        "Latitude(deg)": 29.75324978423975,
        "Longitude(deg)": 158.86682549628978,
        "Mean Anomaly(deg)": 44.38191892798061,
        "RAAN(deg)": 224.98913488021066,
        "Satellite Name": "Constellation 1 992",
        "Satellite Number": 992,
        "Semi-Major Axis(m)": 7083131.272910544,
        "Time(s)": 192
    },
    {
        "Altitude(m)": 704223.0489298064,
        "Argument of Periapsis(deg)": 0.011569965205363285,
        "Eccentricity": 0.0,
        "Inclination(deg)": 45.0,
        "Latitude(deg)": 29.788716710741383,
        "Longitude(deg)": 158.91952362342218,
        "Mean Anomaly(deg)": 44.44262006823054,
        "RAAN(deg)": 224.9890782910451,
        "Satellite Name": "Constellation 1 992",
        "Satellite Number": 992,
        "Semi-Major Axis(m)": 7083131.272910544,
        "Time(s)": 193
    },
    {
        "Altitude(m)": 704228.7668124224,
        "Argument of Periapsis(deg)": 0.01162991321160869,
        "Eccentricity": 0.0,
        "Inclination(deg)": 45.0,
        "Latitude(deg)": 29.82415903197052,
        "Longitude(deg)": 158.97226195212073,
        "Mean Anomaly(deg)": 44.50332120848041,
        "RAAN(deg)": 224.9890217018795,
        "Satellite Name": "Constellation 1 992",
        "Satellite Number": 992,
        "Semi-Major Axis(m)": 7083131.272910544,
        "Time(s)": 194
    },
    {
        "Altitude(m)": 704234.4892147399,
        "Argument of Periapsis(deg)": 0.011689861217854095,
        "Eccentricity": 0.0,
        "Inclination(deg)": 45.0,
        "Latitude(deg)": 29.8595766959232,
        "Longitude(deg)": 159.0250403722268,
        "Mean Anomaly(deg)": 44.56402234873029,
        "RAAN(deg)": 224.98896511271394,
        "Satellite Name": "Constellation 1 992",
        "Satellite Number": 992,
        "Semi-Major Axis(m)": 7083131.272910544,
        "Time(s)": 195
    },
    {
        "Altitude(m)": 704240.2160974429,
        "Argument of Periapsis(deg)": 0.0117498092240995,
        "Eccentricity": 0.0,
        "Inclination(deg)": 45.0,
        "Latitude(deg)": 29.894969650522565,
        "Longitude(deg)": 159.07785894162416,
        "Mean Anomaly(deg)": 44.62472348898021,
        "RAAN(deg)": 224.98890852354836,
        "Satellite Name": "Constellation 1 992",
        "Satellite Number": 992,
        "Semi-Major Axis(m)": 7083131.272910544,
        "Time(s)": 196
    },
    {
        "Altitude(m)": 704245.9474212229,
        "Argument of Periapsis(deg)": 0.011809757230344905,
        "Eccentricity": 0.0,
        "Inclination(deg)": 45.0,
        "Latitude(deg)": 29.930337843618993,
        "Longitude(deg)": 159.1307177181406,
        "Mean Anomaly(deg)": 44.68542462923014,
        "RAAN(deg)": 224.9888519343828,
        "Satellite Name": "Constellation 1 992",
        "Satellite Number": 992,
        "Semi-Major Axis(m)": 7083131.272910544,
        "Time(s)": 197
    },
    {
        "Altitude(m)": 704251.6831467447,
        "Argument of Periapsis(deg)": 0.011869705236590313,
        "Eccentricity": 0.0,
        "Inclination(deg)": 45.0,
        "Latitude(deg)": 29.965681222990288,
        "Longitude(deg)": 159.18361675954765,
        "Mean Anomaly(deg)": 44.746125769480024,
        "RAAN(deg)": 224.98879534521726,
        "Satellite Name": "Constellation 1 992",
        "Satellite Number": 992,
        "Semi-Major Axis(m)": 7083131.272910544,
        "Time(s)": 198
    },
    {
        "Altitude(m)": 704257.4232346858,
        "Argument of Periapsis(deg)": 0.011929653242835719,
        "Eccentricity": 0.0,
        "Inclination(deg)": 45.0,
        "Latitude(deg)": 30.00099973634142,
        "Longitude(deg)": 159.23655612355978,
        "Mean Anomaly(deg)": 44.806826909729885,
        "RAAN(deg)": 224.98873875605165,
        "Satellite Name": "Constellation 1 992",
        "Satellite Number": 992,
        "Semi-Major Axis(m)": 7083131.272910544,
        "Time(s)": 199
    }
]